{
    "links": {
        "self": "http://www.neowsapp.com/rest/v1/neo/3799835?api_key=iIulBulltgU6a56xZRHN4H3l9WmuAYTsLGpBGhQ2"
    },
    "id": "3799835",
    "neo_reference_id": "3799835",
    "name": "(2018 ET1)",
    "designation": "2018 ET1",
    "nasa_jpl_url": "http://ssd.jpl.nasa.gov/sbdb.cgi?sstr=3799835",
    "absolute_magnitude_h": 26.4,
    "estimated_diameter": {
        "kilometers": {
            "estimated_diameter_min": 0.0139493823,
            "estimated_diameter_max": 0.0311917671
        },
        "meters": {
            "estimated_diameter_min": 13.9493822934,
            "estimated_diameter_max": 31.1917670523
        },
        "miles": {
            "estimated_diameter_min": 0.0086677416,
            "estimated_diameter_max": 0.0193816595
        },
        "feet": {
            "estimated_diameter_min": 45.7656914036,
            "estimated_diameter_max": 102.3351970157
        }
    },
    "is_potentially_hazardous_asteroid": false,
    "close_approach_data": [
        {
            "close_approach_date": "2018-03-18",
            "close_approach_date_full": "2018-Mar-18 06:32",
            "epoch_date_close_approach": 1521354720000,
            "relative_velocity": {
                "kilometers_per_second": "6.0365816229",
                "kilometers_per_hour": "21731.6938424952",
                "miles_per_hour": "13503.2294322993"
            },
            "miss_distance": {
                "astronomical": "0.0112407887",
                "lunar": "4.3726668043",
                "kilometers": "1681598.046640069",
                "miles": "1044896.5736841922"
            },
            "orbiting_body": "Earth"
        },
        {
            "close_approach_date": "2018-09-02",
            "close_approach_date_full": "2018-Sep-02 01:51",
            "epoch_date_close_approach": 1535853060000,
            "relative_velocity": {
                "kilometers_per_second": "7.3808832711",
                "kilometers_per_hour": "26571.1797759429",
                "miles_per_hour": "16510.297789113"
            },
            "miss_distance": {
                "astronomical": "0.048057192",
                "lunar": "18.694247688",
                "kilometers": "7189253.56138104",
                "miles": "4467195.016456752"
            },
            "orbiting_body": "Mars"
        },
        {
            "close_approach_date": "2021-08-29",
            "close_approach_date_full": "2021-Aug-29 14:02",
            "epoch_date_close_approach": 1630245720000,
            "relative_velocity": {
                "kilometers_per_second": "8.0981768755",
                "kilometers_per_hour": "29153.4367517448",
                "miles_per_hour": "18114.8118527716"
            },
            "miss_distance": {
                "astronomical": "0.4828058383",
                "lunar": "187.8114710987",
                "kilometers": "72226725.033244421",
                "miles": "44879605.8406821698"
            },
            "orbiting_body": "Earth"
        },
        {
            "close_approach_date": "2031-06-27",
            "close_approach_date_full": "2031-Jun-27 00:45",
            "epoch_date_close_approach": 1940287500000,
            "relative_velocity": {
                "kilometers_per_second": "17.6113286889",
                "kilometers_per_hour": "63400.7832799684",
                "miles_per_hour": "39394.7811441559"
            },
            "miss_distance": {
                "astronomical": "0.4628082008",
                "lunar": "180.0323901112",
                "kilometers": "69235121.058212296",
                "miles": "43020709.3287738448"
            },
            "orbiting_body": "Earth"
        }
    ],
    "orbital_data": {
        "orbit_id": "6",
        "orbit_determination_date": "2018-04-05 06:30:04",
        "first_observation_date": "2018-03-07",
        "last_observation_date": "2018-03-18",
        "data_arc_in_days": 11,
        "observations_used": 39,
        "orbit_uncertainty": "7",
        "minimum_orbit_intersection": ".00505473",
        "jupiter_tisserand_invariant": "5.009",
        "epoch_osculation": "2459000.5",
        "eccentricity": ".238972129291541",
        "semi_major_axis": "1.28388723421153",
        "inclination": "7.764506894858189",
        "ascending_node_longitude": "354.0442296053886",
        "orbital_period": "531.3598649254059",
        "perihelion_distance": ".977073968081773",
        "perihelion_argument": "208.8585298078615",
        "aphelion_distance": "1.590700500341286",
        "perihelion_time": "2458750.389238284110",
        "mean_anomaly": "169.4517786554325",
        "mean_motion": ".6775069472936915",
        "equinox": "J2000",
        "orbit_class": {
            "orbit_class_type": "APO",
            "orbit_class_description": "Near-Earth asteroid orbits which cross the Earth’s orbit similar to that of 1862 Apollo",
            "orbit_class_range": "a (semi-major axis) > 1.0 AU; q (perihelion) < 1.017 AU"
        }
    },
    "is_sentry_object": false
}